CCSDS_OMM_VERS = 2.0
CREATION_DATE  = 
ORIGINATOR     = 

OBJECT_NAME    = STARLINK-36659
OBJECT_ID      = 2026-033N
CENTER_NAME    = EARTH
REF_FRAME      = TEME
TIME_SYSTEM    = UTC
MEAN_ELEMENT_THEORY = SGP/SGP4

EPOCH          = 2026-03-17T04:00:01.999584
MEAN_MOTION    = 15.62746054
ECCENTRICITY   = .0001793
INCLINATION    = 42.9999
RA_OF_ASC_NODE = 225.9827
ARG_OF_PERICENTER = 270.0253
MEAN_ANOMALY   = 106.2517

EPHEMERIS_TYPE = 0
CLASSIFICATION_TYPE = U
NORAD_CAT_ID   = 67833
ELEMENT_SET_NO = 999
REV_AT_EPOCH   = 586
BSTAR          = -.2356E-1
MEAN_MOTION_DOT = -.1923576E-1
MEAN_MOTION_DDOT = 0

CCSDS_OMM_VERS = 2.0
CREATION_DATE  = 
ORIGINATOR     = 

OBJECT_NAME    = STARLINK-36655
OBJECT_ID      = 2026-033P
CENTER_NAME    = EARTH
REF_FRAME      = TEME
TIME_SYSTEM    = UTC
MEAN_ELEMENT_THEORY = SGP/SGP4

EPOCH          = 2026-03-16T20:00:01.999008
MEAN_MOTION    = 15.58652636
ECCENTRICITY   = .0001307
INCLINATION    = 43.0001
RA_OF_ASC_NODE = 228.2026
ARG_OF_PERICENTER = 279.0114
MEAN_ANOMALY   = 286.5103

EPHEMERIS_TYPE = 0
CLASSIFICATION_TYPE = U
NORAD_CAT_ID   = 67834
ELEMENT_SET_NO = 999
REV_AT_EPOCH   = 581
BSTAR          = -.26461E-1
MEAN_MOTION_DOT = -.1851097E-1
MEAN_MOTION_DDOT = 0

CCSDS_OMM_VERS = 2.0
CREATION_DATE  = 
ORIGINATOR     = 

OBJECT_NAME    = STARLINK-36657
OBJECT_ID      = 2026-033Q
CENTER_NAME    = EARTH
REF_FRAME      = TEME
TIME_SYSTEM    = UTC
MEAN_ELEMENT_THEORY = SGP/SGP4

EPOCH          = 2026-03-16T20:00:01.999008
MEAN_MOTION    = 15.62764963
ECCENTRICITY   = .0001461
INCLINATION    = 42.9995
RA_OF_ASC_NODE = 228.0035
ARG_OF_PERICENTER = 275.7850
MEAN_ANOMALY   = 9.1805

EPHEMERIS_TYPE = 0
CLASSIFICATION_TYPE = U
NORAD_CAT_ID   = 67835
ELEMENT_SET_NO = 999
REV_AT_EPOCH   = 581
BSTAR          = -.22895E-1
MEAN_MOTION_DOT = -.1876477E-1
MEAN_MOTION_DDOT = 0

CCSDS_OMM_VERS = 2.0
CREATION_DATE  = 
ORIGINATOR     = 

OBJECT_NAME    = STARLINK-36650
OBJECT_ID      = 2026-033R
CENTER_NAME    = EARTH
REF_FRAME      = TEME
TIME_SYSTEM    = UTC
MEAN_ELEMENT_THEORY = SGP/SGP4

EPOCH          = 2026-03-16T20:00:01.999008
MEAN_MOTION    = 15.54310389
ECCENTRICITY   = .0001556
INCLINATION    = 43.0001
RA_OF_ASC_NODE = 228.4167
ARG_OF_PERICENTER = 284.4802
MEAN_ANOMALY   = 194.3218

EPHEMERIS_TYPE = 0
CLASSIFICATION_TYPE = U
NORAD_CAT_ID   = 67836
ELEMENT_SET_NO = 999
REV_AT_EPOCH   = 581
BSTAR          = -.31004E-1
MEAN_MOTION_DOT = -.1843142E-1
MEAN_MOTION_DDOT = 0

CCSDS_OMM_VERS = 2.0
CREATION_DATE  = 
ORIGINATOR     = 

OBJECT_NAME    = STARLINK-36649
OBJECT_ID      = 2026-033S
CENTER_NAME    = EARTH
REF_FRAME      = TEME
TIME_SYSTEM    = UTC
MEAN_ELEMENT_THEORY = SGP/SGP4

EPOCH          = 2026-03-16T20:00:01.999008
MEAN_MOTION    = 15.58227660
ECCENTRICITY   = .000125
INCLINATION    = 42.9999
RA_OF_ASC_NODE = 228.1909
ARG_OF_PERICENTER = 278.8566
MEAN_ANOMALY   = 290.8577

EPHEMERIS_TYPE = 0
CLASSIFICATION_TYPE = U
NORAD_CAT_ID   = 67837
ELEMENT_SET_NO = 999
REV_AT_EPOCH   = 581
BSTAR          = -.26936E-1
MEAN_MOTION_DOT = -.185361E-1
MEAN_MOTION_DDOT = 0

CCSDS_OMM_VERS = 2.0
CREATION_DATE  = 
ORIGINATOR     = 

OBJECT_NAME    = STARLINK-36654
OBJECT_ID      = 2026-033T
CENTER_NAME    = EARTH
REF_FRAME      = TEME
TIME_SYSTEM    = UTC
MEAN_ELEMENT_THEORY = SGP/SGP4

EPOCH          = 2026-03-16T20:00:01.999008
MEAN_MOTION    = 15.56216324
ECCENTRICITY   = .0001352
INCLINATION    = 42.9997
RA_OF_ASC_NODE = 228.2861
ARG_OF_PERICENTER = 283.5580
MEAN_ANOMALY   = 247.5330

EPHEMERIS_TYPE = 0
CLASSIFICATION_TYPE = U
NORAD_CAT_ID   = 67838
ELEMENT_SET_NO = 999
REV_AT_EPOCH   = 581
BSTAR          = -.29024E-1
MEAN_MOTION_DOT = -.1851258E-1
MEAN_MOTION_DDOT = 0

CCSDS_OMM_VERS = 2.0
CREATION_DATE  = 
ORIGINATOR     = 

OBJECT_NAME    = STARLINK-36652
OBJECT_ID      = 2026-033U
CENTER_NAME    = EARTH
REF_FRAME      = TEME
TIME_SYSTEM    = UTC
MEAN_ELEMENT_THEORY = SGP/SGP4

EPOCH          = 2026-03-16T20:00:01.999008
MEAN_MOTION    = 15.54507090
ECCENTRICITY   = .00015
INCLINATION    = 43.0001
RA_OF_ASC_NODE = 228.3730
ARG_OF_PERICENTER = 285.4728
MEAN_ANOMALY   = 210.7893

EPHEMERIS_TYPE = 0
CLASSIFICATION_TYPE = U
NORAD_CAT_ID   = 67839
ELEMENT_SET_NO = 999
REV_AT_EPOCH   = 581
BSTAR          = -.30803E-1
MEAN_MOTION_DOT = -.1844411E-1
MEAN_MOTION_DDOT = 0

CCSDS_OMM_VERS = 2.0
CREATION_DATE  = 
ORIGINATOR     = 

OBJECT_NAME    = STARLINK-36651
OBJECT_ID      = 2026-033V
CENTER_NAME    = EARTH
REF_FRAME      = TEME
TIME_SYSTEM    = UTC
MEAN_ELEMENT_THEORY = SGP/SGP4

EPOCH          = 2026-03-16T20:00:01.999008
MEAN_MOTION    = 15.56037855
ECCENTRICITY   = .0001333
INCLINATION    = 42.9998
RA_OF_ASC_NODE = 228.2740
ARG_OF_PERICENTER = 283.8155
MEAN_ANOMALY   = 251.8495

EPHEMERIS_TYPE = 0
CLASSIFICATION_TYPE = U
NORAD_CAT_ID   = 67840
ELEMENT_SET_NO = 999
REV_AT_EPOCH   = 581
BSTAR          = -.29223E-1
MEAN_MOTION_DOT = -.1851462E-1
MEAN_MOTION_DDOT = 0

CCSDS_OMM_VERS = 2.0
CREATION_DATE  = 
ORIGINATOR     = 

OBJECT_NAME    = STARLINK-36656
OBJECT_ID      = 2026-033W
CENTER_NAME    = EARTH
REF_FRAME      = TEME
TIME_SYSTEM    = UTC
MEAN_ELEMENT_THEORY = SGP/SGP4

EPOCH          = 2026-03-16T20:00:01.999008
MEAN_MOTION    = 15.57137177
ECCENTRICITY   = .0001287
INCLINATION    = 42.9997
RA_OF_ASC_NODE = 228.2046
ARG_OF_PERICENTER = 283.9226
MEAN_ANOMALY   = 280.0718

EPHEMERIS_TYPE = 0
CLASSIFICATION_TYPE = U
NORAD_CAT_ID   = 67841
ELEMENT_SET_NO = 999
REV_AT_EPOCH   = 581
BSTAR          = -.28044E-1
MEAN_MOTION_DOT = -.1851833E-1
MEAN_MOTION_DDOT = 0

CCSDS_OMM_VERS = 2.0
CREATION_DATE  = 
ORIGINATOR     = 

OBJECT_NAME    = STARLINK-36653
OBJECT_ID      = 2026-033X
CENTER_NAME    = EARTH
REF_FRAME      = TEME
TIME_SYSTEM    = UTC
MEAN_ELEMENT_THEORY = SGP/SGP4

EPOCH          = 2026-03-16T20:00:01.999008
MEAN_MOTION    = 15.56130867
ECCENTRICITY   = .000132
INCLINATION    = 42.9997
RA_OF_ASC_NODE = 228.2481
ARG_OF_PERICENTER = 283.3832
MEAN_ANOMALY   = 262.9014

EPHEMERIS_TYPE = 0
CLASSIFICATION_TYPE = U
NORAD_CAT_ID   = 67842
ELEMENT_SET_NO = 999
REV_AT_EPOCH   = 581
BSTAR          = -.29119E-1
MEAN_MOTION_DOT = -.1851335E-1
MEAN_MOTION_DDOT = 0

CCSDS_OMM_VERS = 2.0
CREATION_DATE  = 
ORIGINATOR     = 

OBJECT_NAME    = STARLINK-36589
OBJECT_ID      = 2026-033Y
CENTER_NAME    = EARTH
REF_FRAME      = TEME
TIME_SYSTEM    = UTC
MEAN_ELEMENT_THEORY = SGP/SGP4

EPOCH          = 2026-03-16T20:00:01.999008
MEAN_MOTION    = 15.57180125
ECCENTRICITY   = .0001268
INCLINATION    = 42.9999
RA_OF_ASC_NODE = 228.1808
ARG_OF_PERICENTER = 278.8421
MEAN_ANOMALY   = 294.5447

EPHEMERIS_TYPE = 0
CLASSIFICATION_TYPE = U
NORAD_CAT_ID   = 67843
ELEMENT_SET_NO = 999
REV_AT_EPOCH   = 581
BSTAR          = -.28075E-1
MEAN_MOTION_DOT = -.1856278E-1
MEAN_MOTION_DDOT = 0

CCSDS_OMM_VERS = 2.0
CREATION_DATE  = 
ORIGINATOR     = 

OBJECT_NAME    = STARLINK-36598
OBJECT_ID      = 2026-033Z
CENTER_NAME    = EARTH
REF_FRAME      = TEME
TIME_SYSTEM    = UTC
MEAN_ELEMENT_THEORY = SGP/SGP4

EPOCH          = 2026-03-16T20:00:01.999008
MEAN_MOTION    = 15.53955196
ECCENTRICITY   = .0001524
INCLINATION    = 43.0000
RA_OF_ASC_NODE = 228.3516
ARG_OF_PERICENTER = 286.8153
MEAN_ANOMALY   = 217.6179

EPHEMERIS_TYPE = 0
CLASSIFICATION_TYPE = U
NORAD_CAT_ID   = 67844
ELEMENT_SET_NO = 999
REV_AT_EPOCH   = 581
BSTAR          = -.31428E-1
MEAN_MOTION_DOT = -.1843889E-1
MEAN_MOTION_DDOT = 0

